*******************************************************************************
Ephemeris / WWW_USER Mon Mar 24 07:24:46 2025 Pasadena, USA      / Horizons    
*******************************************************************************
Target body name: (2018 PN20)                     {source: JPL#3}
Center body name: Earth (399)                     {source: DE441}
Center-site name: Mauna Kea
*******************************************************************************
Start time      : A.D. 2018-Nov-23 03:51:00.0000 UT      
Stop  time      : A.D. 2018-Nov-23 16:25:00.0000 UT      
Step-size       : 1 minutes
*******************************************************************************
Target pole/equ : undefined
Target radii    : undefined                                                    
Center geodetic : 204.5278, 19.8260847, 4.21024   {E-lon(deg),Lat(deg),Alt(km)}
Center cylindric: 204.5278, 6006.35451, 2151.0229 {E-lon(deg),Dxy(km),Dz(km)}
Center pole/equ : ITRF93                          {East-longitude positive}
Center radii    : 6378.137, 6378.137, 6356.752 km {Equator_a, b, pole_c}       
Target primary  : Sun
Vis. interferer : MOON (R_eq= 1737.400) km        {source: DE441}
Rel. light bend : Sun                             {source: DE441}
Rel. lght bnd GM: 1.3271E+11 km^3/s^2                                          
Small-body perts: Yes                             {source: SB441-N16}
Atmos refraction: NO (AIRLESS)
RA format       : HMS
Time format     : CAL 
Calendar mode   : Mixed Julian/Gregorian
RTS-only print  : NO       
EOP file        : eop.250321.p250617                                           
EOP coverage    : DATA-BASED 1962-JAN-20 TO 2025-MAR-21. PREDICTS-> 2025-JUN-16
Units conversion: 1 au= 149597870.700 km, c= 299792.458 km/s, 1 day= 86400.0 s 
Table cut-offs 1: Elevation (-90.0deg=NO ),Airmass (>38.000=NO), Daylight (YES)
Table cut-offs 2: Solar elongation (  0.0,180.0=NO ),Local Hour Angle( 0.0=NO )
Table cut-offs 3: RA/DEC angular rate (     0.0=NO )                           
*******************************************************************************
Initial IAU76/J2000 heliocentric ecliptic osculating elements (au, days, deg.):
  EPOCH=  2458343.5 ! 2018-Aug-13.00 (TDB)         Residual RMS= .1225         
   EC= .3775096637251725   QR= 1.051585063958075   TP= 2458346.3972912203      
   OM= 142.6884316149991   W=  180.4368328240348   IN= 18.91630320954361       
  Equivalent ICRF heliocentric cartesian coordinates (au, au/d):
   X= 8.077039416640637E-01  Y=-6.245728834467501E-01  Z=-2.534674905132982E-01
  VX= 1.177737749455786E-02 VY= 1.576958466977457E-02 VZ=-1.142216194306418E-04
Asteroid physical parameters (km, seconds, rotational period in hours):        
   GM= n.a.                RAD= n.a.               ROTPER= n.a.                
   H= 25.1                 G= .150                 B-V= n.a.                   
                           ALBEDO= n.a.            STYP= n.a.                  
*******************************************************************************
 Date__(UT)__HR:MN     R.A._________(ICRF)_________DEC
******************************************************
$$SOE
 2018-Nov-23 05:54  m  02 33 43.807649 -35 40 55.96076
 2018-Nov-23 05:55  m  02 33 43.796607 -35 40 54.70986
 2018-Nov-23 05:56  m  02 33 43.785552 -35 40 53.45885
 2018-Nov-23 05:57  m  02 33 43.774483 -35 40 52.20773
 2018-Nov-23 05:58  m  02 33 43.763401 -35 40 50.95649
 2018-Nov-23 05:59  m  02 33 43.752306 -35 40 49.70514
 2018-Nov-23 06:00  m  02 33 43.741199 -35 40 48.45367
 2018-Nov-23 06:01  m  02 33 43.730078 -35 40 47.20209
 2018-Nov-23 06:02  m  02 33 43.718944 -35 40 45.95039
 2018-Nov-23 06:03  m  02 33 43.707798 -35 40 44.69858
 2018-Nov-23 06:04  m  02 33 43.696639 -35 40 43.44665
 2018-Nov-23 06:05  m  02 33 43.685467 -35 40 42.19460
 2018-Nov-23 06:06  m  02 33 43.674283 -35 40 40.94243
 2018-Nov-23 06:07  m  02 33 43.663086 -35 40 39.69015
 2018-Nov-23 06:08  m  02 33 43.651876 -35 40 38.43775
 2018-Nov-23 06:09  m  02 33 43.640655 -35 40 37.18523
 2018-Nov-23 06:10  m  02 33 43.629421 -35 40 35.93259
 2018-Nov-23 06:11  m  02 33 43.618174 -35 40 34.67983
 2018-Nov-23 06:12  m  02 33 43.606916 -35 40 33.42695
 2018-Nov-23 06:13  m  02 33 43.595645 -35 40 32.17395
 2018-Nov-23 06:14  m  02 33 43.584363 -35 40 30.92083
 2018-Nov-23 06:15  m  02 33 43.573069 -35 40 29.66759
 2018-Nov-23 06:16  m  02 33 43.561762 -35 40 28.41423
 2018-Nov-23 06:17  m  02 33 43.550444 -35 40 27.16074
 2018-Nov-23 06:18  m  02 33 43.539114 -35 40 25.90714
 2018-Nov-23 06:19  m  02 33 43.527773 -35 40 24.65341
 2018-Nov-23 06:20  m  02 33 43.516420 -35 40 23.39955
 2018-Nov-23 06:21  m  02 33 43.505055 -35 40 22.14558
 2018-Nov-23 06:22  m  02 33 43.493679 -35 40 20.89147
 2018-Nov-23 06:23  m  02 33 43.482292 -35 40 19.63725
 2018-Nov-23 06:24  m  02 33 43.470893 -35 40 18.38290
 2018-Nov-23 06:25  m  02 33 43.459483 -35 40 17.12843
 2018-Nov-23 06:26  m  02 33 43.448062 -35 40 15.87382
 2018-Nov-23 06:27  m  02 33 43.436630 -35 40 14.61910
 2018-Nov-23 06:28  m  02 33 43.425187 -35 40 13.36425
 2018-Nov-23 06:29  m  02 33 43.413733 -35 40 12.10927
 2018-Nov-23 06:30  m  02 33 43.402268 -35 40 10.85416
 2018-Nov-23 06:31  m  02 33 43.390792 -35 40 09.59893
 2018-Nov-23 06:32  m  02 33 43.379306 -35 40 08.34357
 2018-Nov-23 06:33  m  02 33 43.367809 -35 40 07.08808
 2018-Nov-23 06:34  m  02 33 43.356302 -35 40 05.83246
 2018-Nov-23 06:35  m  02 33 43.344784 -35 40 04.57672
 2018-Nov-23 06:36  m  02 33 43.333256 -35 40 03.32084
 2018-Nov-23 06:37  m  02 33 43.321718 -35 40 02.06484
 2018-Nov-23 06:38  m  02 33 43.310169 -35 40 00.80870
 2018-Nov-23 06:39  m  02 33 43.298610 -35 39 59.55244
 2018-Nov-23 06:40  m  02 33 43.287041 -35 39 58.29604
 2018-Nov-23 06:41  m  02 33 43.275462 -35 39 57.03952
 2018-Nov-23 06:42  m  02 33 43.263874 -35 39 55.78286
 2018-Nov-23 06:43  m  02 33 43.252275 -35 39 54.52607
 2018-Nov-23 06:44  m  02 33 43.240667 -35 39 53.26915
 2018-Nov-23 06:45  m  02 33 43.229049 -35 39 52.01210
 2018-Nov-23 06:46  m  02 33 43.217421 -35 39 50.75491
 2018-Nov-23 06:47  m  02 33 43.205784 -35 39 49.49760
 2018-Nov-23 06:48  m  02 33 43.194137 -35 39 48.24015
 2018-Nov-23 06:49  m  02 33 43.182481 -35 39 46.98256
 2018-Nov-23 06:50  m  02 33 43.170816 -35 39 45.72484
 2018-Nov-23 06:51  m  02 33 43.159142 -35 39 44.46699
 2018-Nov-23 06:52  m  02 33 43.147458 -35 39 43.20901
 2018-Nov-23 06:53  m  02 33 43.135766 -35 39 41.95088
 2018-Nov-23 06:54  m  02 33 43.124064 -35 39 40.69263
 2018-Nov-23 06:55  m  02 33 43.112354 -35 39 39.43424
 2018-Nov-23 06:56  m  02 33 43.100635 -35 39 38.17571
 2018-Nov-23 06:57  m  02 33 43.088907 -35 39 36.91705
 2018-Nov-23 06:58  m  02 33 43.077171 -35 39 35.65825
 2018-Nov-23 06:59  m  02 33 43.065426 -35 39 34.39931
 2018-Nov-23 07:00  m  02 33 43.053673 -35 39 33.14024
 2018-Nov-23 07:01  m  02 33 43.041911 -35 39 31.88103
 2018-Nov-23 07:02  m  02 33 43.030141 -35 39 30.62168
 2018-Nov-23 07:03  m  02 33 43.018362 -35 39 29.36220
 2018-Nov-23 07:04  m  02 33 43.006576 -35 39 28.10258
 2018-Nov-23 07:05  m  02 33 42.994782 -35 39 26.84281
 2018-Nov-23 07:06  m  02 33 42.982979 -35 39 25.58291
 2018-Nov-23 07:07  m  02 33 42.971169 -35 39 24.32288
 2018-Nov-23 07:08  m  02 33 42.959351 -35 39 23.06270
 2018-Nov-23 07:09  m  02 33 42.947525 -35 39 21.80238
 2018-Nov-23 07:10  m  02 33 42.935692 -35 39 20.54193
 2018-Nov-23 07:11  m  02 33 42.923851 -35 39 19.28133
 2018-Nov-23 07:12  m  02 33 42.912002 -35 39 18.02059
 2018-Nov-23 07:13  m  02 33 42.900146 -35 39 16.75972
 2018-Nov-23 07:14  m  02 33 42.888283 -35 39 15.49870
 2018-Nov-23 07:15  m  02 33 42.876413 -35 39 14.23754
 2018-Nov-23 07:16  m  02 33 42.864536 -35 39 12.97624
 2018-Nov-23 07:17  m  02 33 42.852651 -35 39 11.71480
 2018-Nov-23 07:18  m  02 33 42.840760 -35 39 10.45322
 2018-Nov-23 07:19  m  02 33 42.828861 -35 39 09.19150
 2018-Nov-23 07:20  m  02 33 42.816956 -35 39 07.92963
 2018-Nov-23 07:21  m  02 33 42.805045 -35 39 06.66762
 2018-Nov-23 07:22  m  02 33 42.793126 -35 39 05.40547
 2018-Nov-23 07:23  m  02 33 42.781201 -35 39 04.14318
 2018-Nov-23 07:24  m  02 33 42.769270 -35 39 02.88074
 2018-Nov-23 07:25  m  02 33 42.757332 -35 39 01.61816
 2018-Nov-23 07:26  m  02 33 42.745388 -35 39 00.35543
 2018-Nov-23 07:27  m  02 33 42.733438 -35 38 59.09257
 2018-Nov-23 07:28  m  02 33 42.721482 -35 38 57.82956
 2018-Nov-23 07:29  m  02 33 42.709520 -35 38 56.56640
 2018-Nov-23 07:30  m  02 33 42.697552 -35 38 55.30310
 2018-Nov-23 07:31  m  02 33 42.685578 -35 38 54.03966
 2018-Nov-23 07:32  m  02 33 42.673598 -35 38 52.77607
 2018-Nov-23 07:33  m  02 33 42.661613 -35 38 51.51233
 2018-Nov-23 07:34  m  02 33 42.649622 -35 38 50.24845
 2018-Nov-23 07:35  m  02 33 42.637625 -35 38 48.98443
 2018-Nov-23 07:36  m  02 33 42.625623 -35 38 47.72026
 2018-Nov-23 07:37  m  02 33 42.613616 -35 38 46.45594
 2018-Nov-23 07:38  m  02 33 42.601604 -35 38 45.19148
 2018-Nov-23 07:39  m  02 33 42.589586 -35 38 43.92687
 2018-Nov-23 07:40  m  02 33 42.577564 -35 38 42.66211
 2018-Nov-23 07:41  m  02 33 42.565536 -35 38 41.39721
 2018-Nov-23 07:42  m  02 33 42.553504 -35 38 40.13216
 2018-Nov-23 07:43  m  02 33 42.541467 -35 38 38.86697
 2018-Nov-23 07:44  m  02 33 42.529425 -35 38 37.60162
 2018-Nov-23 07:45  m  02 33 42.517378 -35 38 36.33613
 2018-Nov-23 07:46  m  02 33 42.505327 -35 38 35.07050
 2018-Nov-23 07:47  m  02 33 42.493272 -35 38 33.80471
 2018-Nov-23 07:48  m  02 33 42.481212 -35 38 32.53878
 2018-Nov-23 07:49  m  02 33 42.469148 -35 38 31.27270
 2018-Nov-23 07:50  m  02 33 42.457080 -35 38 30.00647
 2018-Nov-23 07:51  m  02 33 42.445008 -35 38 28.74009
 2018-Nov-23 07:52  m  02 33 42.432931 -35 38 27.47357
 2018-Nov-23 07:53  m  02 33 42.420851 -35 38 26.20689
 2018-Nov-23 07:54  m  02 33 42.408767 -35 38 24.94007
 2018-Nov-23 07:55  m  02 33 42.396680 -35 38 23.67310
 2018-Nov-23 07:56  m  02 33 42.384588 -35 38 22.40598
